start=new Date('2022-04-11T00:00:00.000Z').valueOf();
sats=[{"SITE":"AFETR","COUNTRY_CODE":"US","SEMIMAJOR_AXIS":"6925.355","DECAY_DATE":null,"TIME_SYSTEM":"UTC","TLE_LINE1":"1 48094U 21027C   22100.72111626  .00001037  00000-0  88512-4 0  9997","BSTAR":"0.00008851200000","REV_AT_EPOCH":"5704","RA_OF_ASC_NODE":"106.5131","LAUNCH_DATE":"2021-04-07","ECCENTRICITY":"0.00015680","EPOCH":"2022-04-10T17:18:24.444864","TLE_LINE2":"2 48094  53.0540 106.5131 0001568  59.4338 300.6806 15.06398004 57048","OBJECT_NAME":"STARLINK-2412","ARG_OF_PERICENTER":"59.4338","FILE":"3396586","OBJECT_ID":"2021-027C","OBJECT_TYPE":"PAYLOAD","MEAN_ANOMALY":"300.6806","INCLINATION":"53.0540","MEAN_ELEMENT_THEORY":"SGP4","CLASSIFICATION_TYPE":"U","EPHEMERIS_TYPE":"0","MEAN_MOTION_DDOT":"0.0000000000000","PERIAPSIS":"546.134","PERIOD":"95.592","ELEMENT_SET_NO":"999","RCS_SIZE":"LARGE","MEAN_MOTION_DOT":"0.00001037","NORAD_CAT_ID":"48094","CENTER_NAME":"EARTH","REF_FRAME":"TEME","GP_ID":"200942103","APOAPSIS":"548.306","MEAN_MOTION":"15.06398004"},{"OBJECT_TYPE":"PAYLOAD","MEAN_ELEMENT_THEORY":"SGP4","INCLINATION":"53.0525","MEAN_ANOMALY":"306.3756","OBJECT_ID":"2021-027D","FILE":"3396586","ARG_OF_PERICENTER":"53.7373","EPOCH":"2022-04-10T17:29:00.541536","TLE_LINE2":"2 48095  53.0525 106.4792 0001519  53.7373 306.3756 15.06407553 57054","OBJECT_NAME":"STARLINK-2414","ECCENTRICITY":"0.00015190","LAUNCH_DATE":"2021-04-07","EPHEMERIS_TYPE":"0","MEAN_MOTION_DDOT":"0.0000000000000","CLASSIFICATION_TYPE":"U","SEMIMAJOR_AXIS":"6925.325","COUNTRY_CODE":"US","SITE":"AFETR","RA_OF_ASC_NODE":"106.4792","REV_AT_EPOCH":"5705","BSTAR":"0.00020345000000","TLE_LINE1":"1 48095U 21027D   22100.72847849  .00002751  00000-0  20345-3 0  9994","TIME_SYSTEM":"UTC","DECAY_DATE":null,"REF_FRAME":"TEME","CENTER_NAME":"EARTH","MEAN_MOTION":"15.06407553","APOAPSIS":"548.242","GP_ID":"200940851","ELEMENT_SET_NO":"999","PERIAPSIS":"546.138","PERIOD":"95.592","NORAD_CAT_ID":"48095","MEAN_MOTION_DOT":"0.00002751","RCS_SIZE":"MEDIUM"},{"OBJECT_ID":"2021-027E","FILE":"3396586","OBJECT_TYPE":"PAYLOAD","INCLINATION":"53.0524","MEAN_ANOMALY":"307.3515","MEAN_ELEMENT_THEORY":"SGP4","LAUNCH_DATE":"2021-04-07","ECCENTRICITY":"0.00017360","TLE_LINE2":"2 48096  53.0524 106.5964 0001736  52.7632 307.3515 15.06401084 57039","EPOCH":"2022-04-10T16:51:51.862176","OBJECT_NAME":"STARLINK-2417","ARG_OF_PERICENTER":"52.7632","EPHEMERIS_TYPE":"0","MEAN_MOTION_DDOT":"0.0000000000000","CLASSIFICATION_TYPE":"U","COUNTRY_CODE":"US","SEMIMAJOR_AXIS":"6925.345","SITE":"AFETR","TLE_LINE1":"1 48096U 21027E   22100.70268359  .00002222  00000-0  16801-3 0  9991","BSTAR":"0.00016801000000","RA_OF_ASC_NODE":"106.5964","REV_AT_EPOCH":"5703","DECAY_DATE":null,"TIME_SYSTEM":"UTC","REF_FRAME":"TEME","CENTER_NAME":"EARTH","APOAPSIS":"548.412","MEAN_MOTION":"15.06401084","GP_ID":"200941101","PERIAPSIS":"546.008","PERIOD":"95.592","ELEMENT_SET_NO":"999","NORAD_CAT_ID":"48096","RCS_SIZE":"LARGE","MEAN_MOTION_DOT":"0.00002222"},{"GP_ID":"200941352","MEAN_MOTION":"15.06406521","APOAPSIS":"548.090","CENTER_NAME":"EARTH","REF_FRAME":"TEME","MEAN_MOTION_DOT":"0.00000480","RCS_SIZE":"LARGE","NORAD_CAT_ID":"48097","ELEMENT_SET_NO":"999","PERIAPSIS":"546.297","PERIOD":"95.592","CLASSIFICATION_TYPE":"U","MEAN_MOTION_DDOT":"0.0000000000000","EPHEMERIS_TYPE":"0","ARG_OF_PERICENTER":"74.3982","TLE_LINE2":"2 48097  53.0561  86.6926 0001295  74.3982 285.7150 15.06406521 57311","EPOCH":"2022-04-10T16:22:39.634752","OBJECT_NAME":"STARLINK-2418","ECCENTRICITY":"0.00012950","LAUNCH_DATE":"2021-04-07","MEAN_ELEMENT_THEORY":"SGP4","OBJECT_TYPE":"PAYLOAD","MEAN_ANOMALY":"285.7150","INCLINATION":"53.0561","FILE":"3396586","OBJECT_ID":"2021-027F","TIME_SYSTEM":"UTC","DECAY_DATE":null,"REV_AT_EPOCH":"5731","RA_OF_ASC_NODE":"86.6926","BSTAR":"0.00005112800000","TLE_LINE1":"1 48097U 21027F   22100.68240318  .00000480  00000-0  51128-4 0  9990","SITE":"AFETR","SEMIMAJOR_AXIS":"6925.329","COUNTRY_CODE":"US"},{"DECAY_DATE":null,"TIME_SYSTEM":"UTC","TLE_LINE1":"1 48098U 21027G   22100.72571824 -.00000219  00000-0  41728-5 0  9992","BSTAR":"0.00000417280000","REV_AT_EPOCH":"5717","RA_OF_ASC_NODE":"96.4952","SITE":"AFETR","COUNTRY_CODE":"US","SEMIMAJOR_AXIS":"6925.345","CLASSIFICATION_TYPE":"U","EPHEMERIS_TYPE":"0","MEAN_MOTION_DDOT":"0.0000000000000","LAUNCH_DATE":"2021-04-07","ECCENTRICITY":"0.00014600","TLE_LINE2":"2 48098  53.0545  96.4952 0001460  62.9884 297.1254 15.06401114 57179","OBJECT_NAME":"STARLINK-2421","EPOCH":"2022-04-10T17:25:02.055936","ARG_OF_PERICENTER":"62.9884","OBJECT_ID":"2021-027G","FILE":"3396586","OBJECT_TYPE":"PAYLOAD","MEAN_ELEMENT_THEORY":"SGP4","MEAN_ANOMALY":"297.1254","INCLINATION":"53.0545","RCS_SIZE":"LARGE","MEAN_MOTION_DOT":"-0.00000219","NORAD_CAT_ID":"48098","PERIOD":"95.592","PERIAPSIS":"546.199","ELEMENT_SET_NO":"999","GP_ID":"200941603","APOAPSIS":"548.221","MEAN_MOTION":"15.06401114","CENTER_NAME":"EARTH","REF_FRAME":"TEME"},{"SITE":"AFETR","SEMIMAJOR_AXIS":"6925.359","COUNTRY_CODE":"US","DECAY_DATE":null,"TIME_SYSTEM":"UTC","REV_AT_EPOCH":"5703","RA_OF_ASC_NODE":"106.5460","BSTAR":"0.00000399030000","TLE_LINE1":"1 48099U 21027H   22100.71374503 -.00000222  00000-0  39903-5 0  9993","TLE_LINE2":"2 48099  53.0558 106.5460 0001706  61.2485 298.8676 15.06396625 57034","OBJECT_NAME":"STARLINK-2428","EPOCH":"2022-04-10T17:07:47.570592","ARG_OF_PERICENTER":"61.2485","LAUNCH_DATE":"2021-04-07","ECCENTRICITY":"0.00017060","MEAN_ANOMALY":"298.8676","OBJECT_TYPE":"PAYLOAD","MEAN_ELEMENT_THEORY":"SGP4","INCLINATION":"53.0558","FILE":"3396586","OBJECT_ID":"2021-027H","CLASSIFICATION_TYPE":"U","EPHEMERIS_TYPE":"0","MEAN_MOTION_DDOT":"0.0000000000000","PERIAPSIS":"546.042","PERIOD":"95.592","ELEMENT_SET_NO":"999","MEAN_MOTION_DOT":"-0.00000222","RCS_SIZE":"LARGE","NORAD_CAT_ID":"48099","CENTER_NAME":"EARTH","REF_FRAME":"TEME","GP_ID":"200940351","APOAPSIS":"548.405","MEAN_MOTION":"15.06396625"},{"BSTAR":"0.00005940200000","TLE_LINE1":"1 48100U 21027J   22100.67503174  .00000603  00000-0  59402-4 0  9996","RA_OF_ASC_NODE":"86.7188","REV_AT_EPOCH":"5731","DECAY_DATE":null,"TIME_SYSTEM":"UTC","COUNTRY_CODE":"US","SEMIMAJOR_AXIS":"6925.337","SITE":"AFETR","EPHEMERIS_TYPE":"0","MEAN_MOTION_DDOT":"0.0000000000000","CLASSIFICATION_TYPE":"U","OBJECT_ID":"2021-027J","FILE":"3396586","OBJECT_TYPE":"PAYLOAD","MEAN_ANOMALY":"300.7597","INCLINATION":"53.0551","MEAN_ELEMENT_THEORY":"SGP4","LAUNCH_DATE":"2021-04-07","ECCENTRICITY":"0.00016170","OBJECT_NAME":"STARLINK-2430","TLE_LINE2":"2 48100  53.0551  86.7188 0001617  59.3551 300.7597 15.06403736 57317","EPOCH":"2022-04-10T16:12:02.742336","ARG_OF_PERICENTER":"59.3551","NORAD_CAT_ID":"48100","RCS_SIZE":"MEDIUM","MEAN_MOTION_DOT":"0.00000603","PERIOD":"95.592","PERIAPSIS":"546.082","ELEMENT_SET_NO":"999","APOAPSIS":"548.322","MEAN_MOTION":"15.06403736","GP_ID":"200940601","REF_FRAME":"TEME","CENTER_NAME":"EARTH"},{"MEAN_MOTION_DDOT":"0.0000000000000","EPHEMERIS_TYPE":"0","CLASSIFICATION_TYPE":"U","FILE":"3396586","OBJECT_ID":"2021-027K","MEAN_ANOMALY":"298.7145","OBJECT_TYPE":"PAYLOAD","MEAN_ELEMENT_THEORY":"SGP4","INCLINATION":"53.0543","LAUNCH_DATE":"2021-04-07","ECCENTRICITY":"0.00017170","TLE_LINE2":"2 48101  53.0543  96.4984 0001717  61.4017 298.7145 15.06395279 57185","OBJECT_NAME":"STARLINK-2436","EPOCH":"2022-04-10T17:23:40.435584","ARG_OF_PERICENTER":"61.4017","BSTAR":"-0.00001428500000","TLE_LINE1":"1 48101U 21027K   22100.72477356 -.00000494  00000-0 -14285-4 0  9995","RA_OF_ASC_NODE":"96.4984","REV_AT_EPOCH":"5718","DECAY_DATE":null,"TIME_SYSTEM":"UTC","COUNTRY_CODE":"US","SEMIMAJOR_AXIS":"6925.363","SITE":"AFETR","APOAPSIS":"548.417","MEAN_MOTION":"15.06395279","GP_ID":"200941853","REF_FRAME":"TEME","CENTER_NAME":"EARTH","NORAD_CAT_ID":"48101","RCS_SIZE":"LARGE","MEAN_MOTION_DOT":"-0.00000494","PERIAPSIS":"546.039","PERIOD":"95.592","ELEMENT_SET_NO":"999"},{"MEAN_MOTION_DDOT":"0.0000000000000","EPHEMERIS_TYPE":"0","CLASSIFICATION_TYPE":"U","OBJECT_ID":"2021-027L","FILE":"3396335","OBJECT_TYPE":"PAYLOAD","MEAN_ELEMENT_THEORY":"SGP4","INCLINATION":"53.0553","MEAN_ANOMALY":"305.8026","LAUNCH_DATE":"2021-04-07","ECCENTRICITY":"0.00017130","TLE_LINE2":"2 48102  53.0553  88.3870 0001713  54.3122 305.8026 15.06408731 56854","EPOCH":"2022-04-10T07:15:57.862656","OBJECT_NAME":"STARLINK-2437","ARG_OF_PERICENTER":"54.3122","BSTAR":"0.00012347000000","TLE_LINE1":"1 48102U 21027L   22100.30275304  .00001558  00000-0  12347-3 0  9995","REV_AT_EPOCH":"5685","RA_OF_ASC_NODE":"88.3870","DECAY_DATE":null,"TIME_SYSTEM":"UTC","COUNTRY_CODE":"US","SEMIMAJOR_AXIS":"6925.322","SITE":"AFETR","APOAPSIS":"548.373","MEAN_MOTION":"15.06408731","GP_ID":"200913378","REF_FRAME":"TEME","CENTER_NAME":"EARTH","NORAD_CAT_ID":"48102","RCS_SIZE":"LARGE","MEAN_MOTION_DOT":"0.00001558","PERIOD":"95.592","PERIAPSIS":"546.000","ELEMENT_SET_NO":"999"},{"MEAN_MOTION":"15.06409248","APOAPSIS":"548.437","GP_ID":"200907479","REF_FRAME":"TEME","CENTER_NAME":"EARTH","NORAD_CAT_ID":"48103","MEAN_MOTION_DOT":"0.00005008","RCS_SIZE":"LARGE","ELEMENT_SET_NO":"999","PERIAPSIS":"545.934","PERIOD":"95.592","MEAN_MOTION_DDOT":"0.0000000000000","EPHEMERIS_TYPE":"0","CLASSIFICATION_TYPE":"U","MEAN_ANOMALY":"296.4071","OBJECT_TYPE":"PAYLOAD","MEAN_ELEMENT_THEORY":"SGP4","INCLINATION":"53.0540","FILE":"3396223","OBJECT_ID":"2021-027M","ARG_OF_PERICENTER":"63.7103","TLE_LINE2":"2 48103  53.0540  87.7443 0001807  63.7103 296.4071 15.06409248 57273","EPOCH":"2022-04-10T10:37:39.432864","OBJECT_NAME":"STARLINK-2438","ECCENTRICITY":"0.00018070","LAUNCH_DATE":"2021-04-07","REV_AT_EPOCH":"5727","RA_OF_ASC_NODE":"87.7443","TLE_LINE1":"1 48103U 21027M   22100.44281751  .00005008  00000-0  35479-3 0  9999","BSTAR":"0.00035479000000","TIME_SYSTEM":"UTC","DECAY_DATE":null,"SEMIMAJOR_AXIS":"6925.320","COUNTRY_CODE":"US","SITE":"AFETR"}];
